{
  "type": "FeatureCollection",
  "features": [
    {
      "type": "Feature",
      "properties": {
        "norad_id": 66871,
        "name": "STARLINK-36095",
        "group": "last-30-days",
        "lat": -37.33738294007045,
        "lon": -46.931643929967265,
        "alt_km": 346.77975912290276,
        "timestamp": "2025-12-19T22:41:51.097815+00:00",
        "meta_object_name": "STARLINK-36095",
        "meta_object_id": "2025-281Z",
        "meta_epoch": "2025-12-19T18:00:00.998784",
        "meta_mean_motion": 15.75004161,
        "meta_eccentricity": 0.0001596,
        "meta_inclination": 43.002,
        "meta_ra_of_asc_node": 79.3138,
        "meta_arg_of_pericenter": 277.1272,
        "meta_mean_anomaly": 294.5714,
        "meta_ephemeris_type": 0,
        "meta_classification_type": "U",
        "meta_norad_cat_id": 66871,
        "meta_element_set_no": 999,
        "meta_rev_at_epoch": 255,
        "meta_bstar": 0.00044998,
        "meta_mean_motion_dot": 0.00069105,
        "meta_mean_motion_ddot": 0,
        "tle_line1": "1 66871U 25281Z   25353.75001156  .00069105  00000+0  44998-3 0  9996",
        "tle_line2": "2 66871  43.0020  79.3138 0001596 277.1272 294.5714 15.75004161  2553"
      },
      "geometry": {
        "type": "Point",
        "coordinates": [
          -46.931643929967265,
          -37.33738294007045
        ]
      }
    },
    {
      "type": "Feature",
      "properties": {
        "norad_id": 66872,
        "name": "STARLINK-36082",
        "group": "last-30-days",
        "lat": -38.06306112605384,
        "lon": -44.704881323939055,
        "alt_km": 346.81239489773725,
        "timestamp": "2025-12-19T22:41:51.097825+00:00",
        "meta_object_name": "STARLINK-36082",
        "meta_object_id": "2025-281AA",
        "meta_epoch": "2025-12-19T18:00:00.998784",
        "meta_mean_motion": 15.75015127,
        "meta_eccentricity": 0.0001648,
        "meta_inclination": 43.0009,
        "meta_ra_of_asc_node": 79.3093,
        "meta_arg_of_pericenter": 283.61,
        "meta_mean_anomaly": 289.9942,
        "meta_ephemeris_type": 0,
        "meta_classification_type": "U",
        "meta_norad_cat_id": 66872,
        "meta_element_set_no": 999,
        "meta_rev_at_epoch": 242,
        "meta_bstar": 0.00042818,
        "meta_mean_motion_dot": 0.00065739,
        "meta_mean_motion_ddot": 0,
        "tle_line1": "1 66872U 25281AA  25353.75001156  .00065739  00000+0  42818-3 0  9995",
        "tle_line2": "2 66872  43.0009  79.3093 0001648 283.6100 289.9942 15.75015127  2422"
      },
      "geometry": {
        "type": "Point",
        "coordinates": [
          -44.704881323939055,
          -38.06306112605384
        ]
      }
    },
    {
      "type": "Feature",
      "properties": {
        "norad_id": 66873,
        "name": "STARLINK-36128",
        "group": "last-30-days",
        "lat": -39.984613185793876,
        "lon": -37.745381688809154,
        "alt_km": 346.7179341712281,
        "timestamp": "2025-12-19T22:41:51.097837+00:00",
        "meta_object_name": "STARLINK-36128",
        "meta_object_id": "2025-281AB",
        "meta_epoch": "2025-12-19T18:00:00.998784",
        "meta_mean_motion": 15.7502924,
        "meta_eccentricity": 0.0001688,
        "meta_inclination": 43.002,
        "meta_ra_of_asc_node": 79.2937,
        "meta_arg_of_pericenter": 274.2766,
        "meta_mean_anomaly": 305.0749,
        "meta_ephemeris_type": 0,
        "meta_classification_type": "U",
        "meta_norad_cat_id": 66873,
        "meta_element_set_no": 999,
        "meta_rev_at_epoch": 255,
        "meta_bstar": 0.00018629,
        "meta_mean_motion_dot": 0.00028221,
        "meta_mean_motion_ddot": 0,
        "tle_line1": "1 66873U 25281AB  25353.75001156  .00028221  00000+0  18629-3 0  9994",
        "tle_line2": "2 66873  43.0020  79.2937 0001688 274.2766 305.0749 15.75029240  2550"
      },
      "geometry": {
        "type": "Point",
        "coordinates": [
          -37.745381688809154,
          -39.984613185793876
        ]
      }
    },
    {
      "type": "Feature",
      "properties": {
        "norad_id": 66874,
        "name": "STARLINK-36129",
        "group": "last-30-days",
        "lat": -38.74988656619517,
        "lon": -42.42461450014773,
        "alt_km": 346.7812175917352,
        "timestamp": "2025-12-19T22:41:51.097847+00:00",
        "meta_object_name": "STARLINK-36129",
        "meta_object_id": "2025-281AC",
        "meta_epoch": "2025-12-19T18:00:00.998784",
        "meta_mean_motion": 15.75006472,
        "meta_eccentricity": 0.0001635,
        "meta_inclination": 43.0009,
        "meta_ra_of_asc_node": 79.3041,
        "meta_arg_of_pericenter": 278.3403,
        "meta_mean_anomaly": 297.1872,
        "meta_ephemeris_type": 0,
        "meta_classification_type": "U",
        "meta_norad_cat_id": 66874,
        "meta_element_set_no": 999,
        "meta_rev_at_epoch": 255,
        "meta_bstar": 0.00050755,
        "meta_mean_motion_dot": 0.000781,
        "meta_mean_motion_ddot": 0,
        "tle_line1": "1 66874U 25281AC  25353.75001156  .00078100  00000+0  50755-3 0  9992",
        "tle_line2": "2 66874  43.0009  79.3041 0001635 278.3403 297.1872 15.75006472  2550"
      },
      "geometry": {
        "type": "Point",
        "coordinates": [
          -42.42461450014773,
          -38.74988656619517
        ]
      }
    },
    {
      "type": "Feature",
      "properties": {
        "norad_id": 66875,
        "name": "STARLINK-36053",
        "group": "last-30-days",
        "lat": -40.5303529363355,
        "lon": -35.34015697950085,
        "alt_km": 346.72037026670114,
        "timestamp": "2025-12-19T22:41:51.097857+00:00",
        "meta_object_name": "STARLINK-36053",
        "meta_object_id": "2025-281AD",
        "meta_epoch": "2025-12-19T18:00:00.998784",
        "meta_mean_motion": 15.75048984,
        "meta_eccentricity": 0.0001604,
        "meta_inclination": 43.0022,
        "meta_ra_of_asc_node": 79.2883,
        "meta_arg_of_pericenter": 270.3326,
        "meta_mean_anomaly": 310.928,
        "meta_ephemeris_type": 0,
        "meta_classification_type": "U",
        "meta_norad_cat_id": 66875,
        "meta_element_set_no": 999,
        "meta_rev_at_epoch": 255,
        "meta_bstar": 2.6141e-05,
        "meta_mean_motion_dot": 3.541e-05,
        "meta_mean_motion_ddot": 0,
        "tle_line1": "1 66875U 25281AD  25353.75001156  .00003541  00000+0  26141-4 0  9993",
        "tle_line2": "2 66875  43.0022  79.2883 0001604 270.3326 310.9280 15.75048984  2552"
      },
      "geometry": {
        "type": "Point",
        "coordinates": [
          -35.34015697950085,
          -40.5303529363355
        ]
      }
    },
    {
      "type": "Feature",
      "properties": {
        "norad_id": 66876,
        "name": "STARLINK-35702",
        "group": "last-30-days",
        "lat": -39.39085579931573,
        "lon": -40.10384793477578,
        "alt_km": 346.8227069498553,
        "timestamp": "2025-12-19T22:41:51.097869+00:00",
        "meta_object_name": "STARLINK-35702",
        "meta_object_id": "2025-281AE",
        "meta_epoch": "2025-12-19T18:00:00.998784",
        "meta_mean_motion": 15.75024925,
        "meta_eccentricity": 0.0001757,
        "meta_inclination": 43.0011,
        "meta_ra_of_asc_node": 79.2992,
        "meta_arg_of_pericenter": 287.6673,
        "meta_mean_anomaly": 289.7744,
        "meta_ephemeris_type": 0,
        "meta_classification_type": "U",
        "meta_norad_cat_id": 66876,
        "meta_element_set_no": 999,
        "meta_rev_at_epoch": 255,
        "meta_bstar": 0.00024304,
        "meta_mean_motion_dot": 0.00036997,
        "meta_mean_motion_ddot": 0,
        "tle_line1": "1 66876U 25281AE  25353.75001156  .00036997  00000+0  24304-3 0  9993",
        "tle_line2": "2 66876  43.0011  79.2992 0001757 287.6673 289.7744 15.75024925  2554"
      },
      "geometry": {
        "type": "Point",
        "coordinates": [
          -40.10384793477578,
          -39.39085579931573
        ]
      }
    },
    {
      "type": "Feature",
      "properties": {
        "norad_id": 66877,
        "name": "ZQ-3 R/B",
        "group": "last-30-days",
        "lat": -34.191503184170294,
        "lon": -123.96753437720606,
        "alt_km": 154.98335721519288,
        "timestamp": "2025-12-19T22:41:51.097882+00:00",
        "meta_object_name": "ZQ-3 R/B",
        "meta_object_id": "2025-282A",
        "meta_epoch": "2025-12-19T11:53:21.153408",
        "meta_mean_motion": 14.73290803,
        "meta_eccentricity": 0.0721973,
        "meta_inclination": 56.9495,
        "meta_ra_of_asc_node": 31.5399,
        "meta_arg_of_pericenter": 231.7966,
        "meta_mean_anomaly": 121.5917,
        "meta_ephemeris_type": 0,
        "meta_classification_type": "U",
        "meta_norad_cat_id": 66877,
        "meta_element_set_no": 999,
        "meta_rev_at_epoch": 238,
        "meta_bstar": 0.00017878,
        "meta_mean_motion_dot": 0.009813,
        "meta_mean_motion_ddot": 7.7232e-06,
        "tle_line1": "1 66877U 25282A   25353.49538372  .00981300  77232-5  17878-3 0  9993",
        "tle_line2": "2 66877  56.9495  31.5399 0721973 231.7966 121.5917 14.73290803  2383"
      },
      "geometry": {
        "type": "Point",
        "coordinates": [
          -123.96753437720606,
          -34.191503184170294
        ]
      }
    }
  ]
}